[
    {
        "Altitude(m)": 706093.1044448859,
        "Argument of Periapsis(deg)": 0.0022780242373254137,
        "Eccentricity": 0.0,
        "Inclination(deg)": 45.0,
        "Latitude(deg)": -13.213784459551878,
        "Longitude(deg)": 98.37551141532104,
        "Mean Anomaly(deg)": 198.67024332949617,
        "RAAN(deg)": 4.997849611708359,
        "Satellite Name": "Constellation 1 34",
        "Satellite Number": 34,
        "Semi-Major Axis(m)": 7083131.272910544,
        "Time(s)": 38
    },
    {
        "Altitude(m)": 706104.3386806657,
        "Argument of Periapsis(deg)": 0.002337972243570819,
        "Eccentricity": 0.0,
        "Inclination(deg)": 45.0,
        "Latitude(deg)": -13.255753258292907,
        "Longitude(deg)": 98.41658635294229,
        "Mean Anomaly(deg)": 198.73094446974605,
        "RAAN(deg)": 4.99779302254279,
        "Satellite Name": "Constellation 1 34",
        "Satellite Number": 34,
        "Semi-Major Axis(m)": 7083131.272910544,
        "Time(s)": 39
    },
    {
        "Altitude(m)": 706115.5872893087,
        "Argument of Periapsis(deg)": 0.0023979202498162246,
        "Eccentricity": 0.0,
        "Inclination(deg)": 45.0,
        "Latitude(deg)": -13.297713822681935,
        "Longitude(deg)": 98.45767667621838,
        "Mean Anomaly(deg)": 198.79164560999595,
        "RAAN(deg)": 4.99773643337722,
        "Satellite Name": "Constellation 1 34",
        "Satellite Number": 34,
        "Semi-Major Axis(m)": 7083131.272910544,
        "Time(s)": 40
    },
    {
        "Altitude(m)": 706126.8502378884,
        "Argument of Periapsis(deg)": 0.00245786825606163,
        "Eccentricity": 0.0,
        "Inclination(deg)": 45.0,
        "Latitude(deg)": -13.339666123380056,
        "Longitude(deg)": 98.4987824381553,
        "Mean Anomaly(deg)": 198.85234675024583,
        "RAAN(deg)": 4.997679844211651,
        "Satellite Name": "Constellation 1 34",
        "Satellite Number": 34,
        "Semi-Major Axis(m)": 7083131.272910544,
        "Time(s)": 41
    },
    {
        "Altitude(m)": 706138.1274934137,
        "Argument of Periapsis(deg)": 0.002517816262307036,
        "Eccentricity": 0.0,
        "Inclination(deg)": 45.0,
        "Latitude(deg)": -13.381610131018867,
        "Longitude(deg)": 98.53990369178699,
        "Mean Anomaly(deg)": 198.91304789049576,
        "RAAN(deg)": 4.997623255046081,
        "Satellite Name": "Constellation 1 34",
        "Satellite Number": 34,
        "Semi-Major Axis(m)": 7083131.272910544,
        "Time(s)": 42
    },
    {
        "Altitude(m)": 706149.4190228177,
        "Argument of Periapsis(deg)": 0.0025777642685524413,
        "Eccentricity": 0.0,
        "Inclination(deg)": 45.0,
        "Latitude(deg)": -13.423545816200212,
        "Longitude(deg)": 98.58104049017545,
        "Mean Anomaly(deg)": 198.97374903074564,
        "RAAN(deg)": 4.997566665880512,
        "Satellite Name": "Constellation 1 34",
        "Satellite Number": 34,
        "Semi-Major Axis(m)": 7083131.272910544,
        "Time(s)": 43
    },
    {
        "Altitude(m)": 706160.7247929639,
        "Argument of Periapsis(deg)": 0.002637712274797847,
        "Eccentricity": 0.0,
        "Inclination(deg)": 45.0,
        "Latitude(deg)": -13.465473149496194,
        "Longitude(deg)": 98.62219271831377,
        "Mean Anomaly(deg)": 199.03445017099557,
        "RAAN(deg)": 4.997510076714942,
        "Satellite Name": "Constellation 1 34",
        "Satellite Number": 34,
        "Semi-Major Axis(m)": 7083131.272910544,
        "Time(s)": 44
    },
    {
        "Altitude(m)": 706172.044770646,
        "Argument of Periapsis(deg)": 0.0026976602810432526,
        "Eccentricity": 0.0,
        "Inclination(deg)": 45.0,
        "Latitude(deg)": -13.507392101448982,
        "Longitude(deg)": 98.66336076551404,
        "Mean Anomaly(deg)": 199.09515131124544,
        "RAAN(deg)": 4.997453487549373,
        "Satellite Name": "Constellation 1 34",
        "Satellite Number": 34,
        "Semi-Major Axis(m)": 7083131.272910544,
        "Time(s)": 45
    },
    {
        "Altitude(m)": 706183.3789225859,
        "Argument of Periapsis(deg)": 0.0027576082872886585,
        "Eccentricity": 0.0,
        "Inclination(deg)": 45.0,
        "Latitude(deg)": -13.54930264257065,
        "Longitude(deg)": 98.7045445168256,
        "Mean Anomaly(deg)": 199.15585245149535,
        "RAAN(deg)": 4.997396898383803,
        "Satellite Name": "Constellation 1 34",
        "Satellite Number": 34,
        "Semi-Major Axis(m)": 7083131.272910544,
        "Time(s)": 46
    },
    {
        "Altitude(m)": 706194.7272154421,
        "Argument of Periapsis(deg)": 0.0028175562935340644,
        "Eccentricity": 0.0,
        "Inclination(deg)": 45.0,
        "Latitude(deg)": -13.591204743343292,
        "Longitude(deg)": 98.74574402542304,
        "Mean Anomaly(deg)": 199.21655359174522,
        "RAAN(deg)": 4.997340309218234,
        "Satellite Name": "Constellation 1 34",
        "Satellite Number": 34,
        "Semi-Major Axis(m)": 7083131.272910544,
        "Time(s)": 47
    },
    {
        "Altitude(m)": 706206.0896157883,
        "Argument of Periapsis(deg)": 0.00287750429977947,
        "Eccentricity": 0.0,
        "Inclination(deg)": 45.0,
        "Latitude(deg)": -13.633098374218637,
        "Longitude(deg)": 98.78695934450913,
        "Mean Anomaly(deg)": 199.27725473199516,
        "RAAN(deg)": 4.997283720052664,
        "Satellite Name": "Constellation 1 34",
        "Satellite Number": 34,
        "Semi-Major Axis(m)": 7083131.272910544,
        "Time(s)": 48
    },
    {
        "Altitude(m)": 706217.4660901494,
        "Argument of Periapsis(deg)": 0.002937452306024875,
        "Eccentricity": 0.0,
        "Inclination(deg)": 45.0,
        "Latitude(deg)": -13.674983505618151,
        "Longitude(deg)": 98.82819052731507,
        "Mean Anomaly(deg)": 199.337955872245,
        "RAAN(deg)": 4.997227130887095,
        "Satellite Name": "Constellation 1 34",
        "Satellite Number": 34,
        "Semi-Major Axis(m)": 7083131.272910544,
        "Time(s)": 49
    },
    {
        "Altitude(m)": 706228.8566049578,
        "Argument of Periapsis(deg)": 0.0029974003122702807,
        "Eccentricity": 0.0,
        "Inclination(deg)": 45.0,
        "Latitude(deg)": -13.7168601079328,
        "Longitude(deg)": 98.86943762710023,
        "Mean Anomaly(deg)": 199.39865701249494,
        "RAAN(deg)": 4.997170541721525,
        "Satellite Name": "Constellation 1 34",
        "Satellite Number": 34,
        "Semi-Major Axis(m)": 7083131.272910544,
        "Time(s)": 50
    },
    {
        "Altitude(m)": 706240.2611265895,
        "Argument of Periapsis(deg)": 0.0030573483185156866,
        "Eccentricity": 0.0,
        "Inclination(deg)": 45.0,
        "Latitude(deg)": -13.758728151523007,
        "Longitude(deg)": 98.91070069715255,
        "Mean Anomaly(deg)": 199.45935815274484,
        "RAAN(deg)": 4.997113952555956,
        "Satellite Name": "Constellation 1 34",
        "Satellite Number": 34,
        "Semi-Major Axis(m)": 7083131.272910544,
        "Time(s)": 51
    },
    {
        "Altitude(m)": 706251.6796213535,
        "Argument of Periapsis(deg)": 0.003117296324761092,
        "Eccentricity": 0.0,
        "Inclination(deg)": 45.0,
        "Latitude(deg)": -13.800587606718567,
        "Longitude(deg)": 98.95197962269141,
        "Mean Anomaly(deg)": 199.52005929299474,
        "RAAN(deg)": 4.997057363390386,
        "Satellite Name": "Constellation 1 34",
        "Satellite Number": 34,
        "Semi-Major Axis(m)": 7083131.272910544,
        "Time(s)": 52
    },
    {
        "Altitude(m)": 706263.1120554835,
        "Argument of Periapsis(deg)": 0.0031772443310064975,
        "Eccentricity": 0.0,
        "Inclination(deg)": 45.0,
        "Latitude(deg)": -13.842438443818493,
        "Longitude(deg)": 98.99327479325552,
        "Mean Anomaly(deg)": 199.58076043324462,
        "RAAN(deg)": 4.997000774224817,
        "Satellite Name": "Constellation 1 34",
        "Satellite Number": 34,
        "Semi-Major Axis(m)": 7083131.272910544,
        "Time(s)": 53
    },
    {
        "Altitude(m)": 706274.5583951385,
        "Argument of Periapsis(deg)": 0.0032371923372519038,
        "Eccentricity": 0.0,
        "Inclination(deg)": 45.0,
        "Latitude(deg)": -13.88428063309098,
        "Longitude(deg)": 99.03458609412138,
        "Mean Anomaly(deg)": 199.64146157349455,
        "RAAN(deg)": 4.996944185059247,
        "Satellite Name": "Constellation 1 34",
        "Satellite Number": 34,
        "Semi-Major Axis(m)": 7083131.272910544,
        "Time(s)": 54
    },
    {
        "Altitude(m)": 706286.0186064228,
        "Argument of Periapsis(deg)": 0.0032971403434973088,
        "Eccentricity": 0.0,
        "Inclination(deg)": 45.0,
        "Latitude(deg)": -13.926114144773077,
        "Longitude(deg)": 99.07591357869087,
        "Mean Anomaly(deg)": 199.7021627137444,
        "RAAN(deg)": 4.996887595893678,
        "Satellite Name": "Constellation 1 34",
        "Satellite Number": 34,
        "Semi-Major Axis(m)": 7083131.272910544,
        "Time(s)": 55
    },
    {
        "Altitude(m)": 706297.4926553547,
        "Argument of Periapsis(deg)": 0.0033570883497427146,
        "Eccentricity": 0.0,
        "Inclination(deg)": 45.0,
        "Latitude(deg)": -13.967938949070986,
        "Longitude(deg)": 99.11725730039466,
        "Mean Anomaly(deg)": 199.76286385399433,
        "RAAN(deg)": 4.996831006728108,
        "Satellite Name": "Constellation 1 34",
        "Satellite Number": 34,
        "Semi-Major Axis(m)": 7083131.272910544,
        "Time(s)": 56
    }
]